     3.02           N: GNSS NAV DATA    G: GPS              RINEX VERSION / TYPE
Spider v7.5.1.8670  SMO                 20220126 002408 UTC PGM / RUN BY / DATE
GPSA   1.2107D-08 -7.4506D-09 -5.9605D-08  5.9605D-08       IONOSPHERIC CORR
GPSB   1.1469D+05 -1.3107D+05 -2.6214D+05  7.2090D+05       IONOSPHERIC CORR
GPUT -4.6566128731D-09-1.154631946D-14 503808 2194          TIME SYSTEM CORR
    18    18  2185     7                                    LEAP SECONDS
                                                            END OF HEADER
G08 2022 01 25 12 00 00-5.354266613722D-05-1.477928890381D-12 0.000000000000D+00
     8.200000000000D+01-2.334375000000D+01 4.441256251653D-09 2.540997792106D+00
    -1.158565282822D-06 7.191893993877D-03 5.234032869339D-06 5.153713220596D+03
     2.160000000000D+05-2.980232238770D-08-2.614805098888D+00 3.725290298462D-08
     9.651674969061D-01 2.820937500000D+02 8.870335016487D-02-8.204270152135D-09
    -1.892935946879D-10 1.000000000000D+00 2.194000000000D+03 0.000000000000D+00
     2.000000000000D+00 0.000000000000D+00 5.122274160385D-09 8.200000000000D+01
     2.087400000000D+05                   
G16 2022 01 25 12 00 00-4.605399444699D-04-5.229594535194D-12 0.000000000000D+00
     5.000000000000D+01 6.881250000000D+01 4.355181548732D-09-2.924863211219D+00
     3.440305590630D-06 1.269299339037D-02 5.895271897316D-06 5.153594955444D+03
     2.160000000000D+05-2.980232238770D-08 2.731609951113D+00-2.030283212662D-07
     9.707097166989D-01 2.714687500000D+02 6.995378511537D-01-8.019262587311D-09
     7.000291318837D-11 1.000000000000D+00 2.194000000000D+03 0.000000000000D+00
     2.000000000000D+00 0.000000000000D+00-1.024454832077D-08 5.000000000000D+01
     2.087400000000D+05                   
G03 2022 01 25 12 00 00-9.251851588488D-05-1.580247044330D-11 0.000000000000D+00
     3.900000000000D+01-1.150000000000D+01 4.546617748957D-09-9.110740689319D-01
    -4.991888999939D-07 3.857409697957D-03 7.068738341331D-06 5.153690959930D+03
     2.160000000000D+05 1.490116119385D-08-4.997900496217D-01 5.587935447693D-08
     9.724963961041D-01 2.523437500000D+02 9.718141349995D-01-8.094265702141D-09
     3.242992263619D-10 1.000000000000D+00 2.194000000000D+03 0.000000000000D+00
     2.000000000000D+00 0.000000000000D+00 1.862645149231D-09 3.900000000000D+01
     2.087400000000D+05                   
G19 2022 01 25 12 00 00 1.101745292544D-04 5.002220859751D-12 0.000000000000D+00
     2.800000000000D+01-2.540625000000D+01 4.024453215123D-09-1.432501504958D+00
    -1.151114702225D-06 8.946927380748D-03 6.454065442085D-06 5.153682504654D+03
     2.160000000000D+05-2.104789018631D-07-2.488343955982D+00 5.587935447693D-08
     9.789391487678D-01 2.672187500000D+02 1.998860322224D+00-8.065693002379D-09
    -8.750364322019D-11 1.000000000000D+00 2.194000000000D+03 0.000000000000D+00
     2.000000000000D+00 0.000000000000D+00-1.583248376846D-08 2.800000000000D+01
     2.087400000000D+05                   
G06 2022 01 25 12 00 00 1.812037080526D-04 1.125499693444D-11 0.000000000000D+00
     3.200000000000D+01-2.796875000000D+01 3.803015680148D-09 6.105147261146D-01
    -1.419335603714D-06 2.655068528838D-03 8.951872587204D-06 5.153659902573D+03
     2.160000000000D+05-2.048909664154D-08-1.543546975979D+00-6.519258022308D-08
     9.858965735667D-01 2.176875000000D+02-9.871574509559D-01-7.819968672607D-09
     1.850077036014D-10 1.000000000000D+00 2.194000000000D+03 0.000000000000D+00
     2.000000000000D+00 0.000000000000D+00 3.725290298462D-09 3.200000000000D+01
     2.087400000000D+05                   
G21 2022 01 25 14 00 00 1.568291336298D-04 7.958078640513D-13 0.000000000000D+00
     1.600000000000D+01-4.065625000000D+01 4.144815601848D-09-2.618445621730D+00
    -1.754611730576D-06 2.454421913717D-02 9.013339877129D-06 5.153599195480D+03
     2.232000000000D+05 9.126961231232D-08-1.625691533355D+00 3.091990947723D-07
     9.591069988848D-01 1.960625000000D+02-1.019101793040D+00-7.647461330862D-09
     2.110802227451D-10 1.000000000000D+00 2.194000000000D+03 0.000000000000D+00
     2.000000000000D+00 0.000000000000D+00-1.024454832077D-08 1.600000000000D+01
     2.159400000000D+05                   
G07 2022 01 25 14 00 00 3.049508668482D-04 3.296918293927D-12 0.000000000000D+00
     9.500000000000D+01 3.437500000000D+01 4.839844525151D-09 6.394650790759D-01
     2.099201083183D-06 1.545681990683D-02 1.057423651218D-05 5.153702869415D+03
     2.232000000000D+05-1.788139343262D-07 1.600297856086D+00 1.434236764908D-07
     9.506424071235D-01 1.725625000000D+02-2.294106466537D+00-8.354633429519D-09
    -2.817974464886D-10 1.000000000000D+00 2.194000000000D+03 0.000000000000D+00
     2.000000000000D+00 0.000000000000D+00-1.117587089539D-08 9.500000000000D+01
     2.159400000000D+05                   
G17 2022 01 25 14 00 00 5.662050098181D-04 5.002220859751D-12 0.000000000000D+00
     4.100000000000D+01-2.637500000000D+01 4.010881404781D-09-2.786405829924D+00
    -1.292675733566D-06 1.367786561605D-02 5.302950739861D-06 5.153746553421D+03
     2.232000000000D+05 1.620501279831D-07-2.533299118420D+00-2.048909664154D-08
     9.802238541666D-01 2.877187500000D+02-1.504674327017D+00-7.753537367705D-09
    -1.560779283594D-10 1.000000000000D+00 2.194000000000D+03 0.000000000000D+00
     2.000000000000D+00 0.000000000000D+00-1.117587089539D-08 4.100000000000D+01
     2.159400000000D+05                   
G06 2022 01 25 14 00 00 1.812851987779D-04 1.125499693444D-11 0.000000000000D+00
     3.300000000000D+01-3.475000000000D+01 3.717654850632D-09 1.660598041705D+00
    -1.743435859680D-06 2.655803458765D-03 8.707866072655D-06 5.153660945892D+03
     2.232000000000D+05 6.705522537231D-08-1.543602824339D+00-7.450580596924D-09
     9.858983027359D-01 2.238437500000D+02-9.870580164141D-01-7.722107397967D-09
     1.696499191128D-10 1.000000000000D+00 2.194000000000D+03 0.000000000000D+00
     2.000000000000D+00 0.000000000000D+00 3.725290298462D-09 3.300000000000D+01
     2.159400000000D+05                   
G19 2022 01 25 14 00 00 1.102103851736D-04 5.002220859751D-12 0.000000000000D+00
     2.900000000000D+01-3.050000000000D+01 4.064812042515D-09-3.824273735666D-01
    -1.540407538414D-06 8.945770445280D-03 5.979090929031D-06 5.153679828644D+03
     2.232000000000D+05-2.123415470123D-07-2.488402209380D+00-1.136213541031D-07
     9.789385109355D-01 2.774687500000D+02 1.998958571802D+00-8.098552051194D-09
    -1.203621508017D-10 1.000000000000D+00 2.194000000000D+03 0.000000000000D+00
     2.000000000000D+00 0.000000000000D+00-1.583248376846D-08 2.900000000000D+01
     2.159400000000D+05                   
G14 2022 01 25 14 00 00-7.547577843070D-05-5.115907697473D-12 0.000000000000D+00
     1.010000000000D+02 6.471875000000D+01 4.788413665580D-09 2.730521819480D-02
     3.166496753693D-06 1.340351416729D-03 6.016343832016D-06 5.153646612167D+03
     2.232000000000D+05 1.117587089539D-08 2.681974691377D+00 2.980232238770D-08
     9.541374617808D-01 2.605625000000D+02 3.033829679618D+00-8.335704571039D-09
    -9.250385180071D-11 1.000000000000D+00 2.194000000000D+03 0.000000000000D+00
     2.000000000000D+00 0.000000000000D+00-7.450580596924D-09 8.690000000000D+02
     2.159400000000D+05                   
G30 2022 01 25 14 00 00-5.091223865747D-04-2.501110429876D-12 0.000000000000D+00
     2.900000000000D+01 2.868750000000D+01 5.141285619459D-09 6.614324105605D-01
     1.654028892517D-06 5.436478182673D-03 9.831041097641D-06 5.153589483261D+03
     2.232000000000D+05-3.725290298462D-09 1.613761174556D+00 6.332993507385D-08
     9.358125271366D-01 1.733750000000D+02-2.750128460541D+00-8.357490699495D-09
    -1.928651821581D-10 1.000000000000D+00 2.194000000000D+03 0.000000000000D+00
     2.000000000000D+00 0.000000000000D+00 3.725290298462D-09 2.900000000000D+01
     2.159400000000D+05                   
G01 2022 01 25 14 00 00 4.482446238399D-04-9.663381206337D-12 0.000000000000D+00
     8.000000000000D+01-4.400000000000D+01 3.766228218183D-09 1.304689844357D+00
    -2.266839146614D-06 1.129392231815D-02 9.618699550629D-06 5.153677904129D+03
     2.232000000000D+05-1.676380634308D-07-1.535331699105D+00 9.313225746155D-08
     9.865152884358D-01 2.083750000000D+02 8.816804313118D-01-7.919973121773D-09
     1.139333141720D-10 1.000000000000D+00 2.194000000000D+03 0.000000000000D+00
     2.000000000000D+00 0.000000000000D+00 5.122274160385D-09 8.000000000000D+01
     2.159400000000D+05                   
G08 2022 01 25 14 00 00-5.355337634683D-05-1.477928890381D-12 0.000000000000D+00
     9.100000000000D+01-2.771875000000D+01 4.441613743467D-09-2.692063667875D+00
    -1.383945345879D-06 7.192530436441D-03 5.546957254410D-06 5.153712068558D+03
     2.232000000000D+05-6.332993507385D-08-2.614864205167D+00 1.676380634308D-08
     9.651661203001D-01 2.777500000000D+02 8.873569089485D-02-8.213199009788D-09
    -1.864363385895D-10 1.000000000000D+00 2.194000000000D+03 0.000000000000D+00
     2.000000000000D+00 0.000000000000D+00 5.122274160385D-09 9.100000000000D+01
     2.159400000000D+05                   
G03 2022 01 25 14 00 00-9.263213723898D-05-1.580247044330D-11 0.000000000000D+00
     5.100000000000D+01-1.537500000000D+01 4.530903208178D-09 1.389904671794D-01
    -9.257346391678D-07 3.856790484861D-03 7.333233952522D-06 5.153689573288D+03
     2.232000000000D+05 2.607703208923D-08-4.998485999920D-01 3.725290298462D-09
     9.724986680159D-01 2.483125000000D+02 9.719208139117D-01-8.130339068657D-09
     3.443000606840D-10 1.000000000000D+00 2.194000000000D+03 0.000000000000D+00
     2.000000000000D+00 0.000000000000D+00 1.862645149231D-09 5.100000000000D+01
     2.159400000000D+05                   
